[{"OBJECT_NAME":"STARLINK-1762","OBJECT_ID":"2020-062T","EPOCH":"2025-12-25T03:20:37.597920","MEAN_MOTION":15.06382584,"ECCENTRICITY":0.00013887,"INCLINATION":53.0558,"RA_OF_ASC_NODE":351.2894,"ARG_OF_PERICENTER":88.965,"MEAN_ANOMALY":271.1498,"EPHEMERIS_TYPE":0,"CLASSIFICATION_TYPE":"U","NORAD_CAT_ID":46342,"ELEMENT_SET_NO":999,"REV_AT_EPOCH":29307,"BSTAR":9.8049715e-5,"MEAN_MOTION_DOT":1.179e-5,"MEAN_MOTION_DDOT":0},{"OBJECT_NAME":"STARLINK-1764","OBJECT_ID":"2020-062U","EPOCH":"2025-12-25T22:00:01.998720","MEAN_MOTION":15.4496619,"ECCENTRICITY":0.0014327,"INCLINATION":53.0516,"RA_OF_ASC_NODE":314.1313,"ARG_OF_PERICENTER":62.1999,"MEAN_ANOMALY":16.1358,"EPHEMERIS_TYPE":0,"CLASSIFICATION_TYPE":"U","NORAD_CAT_ID":46343,"ELEMENT_SET_NO":999,"REV_AT_EPOCH":577,"BSTAR":0.0031208,"MEAN_MOTION_DOT":0.00152383,"MEAN_MOTION_DDOT":0},{"OBJECT_NAME":"STARLINK-1765","OBJECT_ID":"2020-062V","EPOCH":"2025-12-25T22:00:01.998720","MEAN_MOTION":15.53123262,"ECCENTRICITY":0.0012117,"INCLINATION":53.0484,"RA_OF_ASC_NODE":306.0433,"ARG_OF_PERICENTER":52.9376,"MEAN_ANOMALY":65.6682,"EPHEMERIS_TYPE":0,"CLASSIFICATION_TYPE":"U","NORAD_CAT_ID":46344,"ELEMENT_SET_NO":999,"REV_AT_EPOCH":596,"BSTAR":0.00117,"MEAN_MOTION_DOT":0.00075023,"MEAN_MOTION_DDOT":0},{"OBJECT_NAME":"STARLINK-1767","OBJECT_ID":"2020-062W","EPOCH":"2025-12-25T22:00:01.998720","MEAN_MOTION":15.71622824,"ECCENTRICITY":0.0007323,"INCLINATION":53.0412,"RA_OF_ASC_NODE":303.6965,"ARG_OF_PERICENTER":85.5444,"MEAN_ANOMALY":173.8567,"EPHEMERIS_TYPE":0,"CLASSIFICATION_TYPE":"U","NORAD_CAT_ID":46345,"ELEMENT_SET_NO":999,"REV_AT_EPOCH":599,"BSTAR":0.0020997,"MEAN_MOTION_DOT":0.00284894,"MEAN_MOTION_DDOT":0},{"OBJECT_NAME":"STARLINK-1547","OBJECT_ID":"2020-062Y","EPOCH":"2025-12-25T19:17:28.135104","MEAN_MOTION":15.43888838,"ECCENTRICITY":0.0006599,"INCLINATION":53.0441,"RA_OF_ASC_NODE":275.4668,"ARG_OF_PERICENTER":62.1469,"MEAN_ANOMALY":298.0204,"EPHEMERIS_TYPE":0,"CLASSIFICATION_TYPE":"U","NORAD_CAT_ID":46347,"ELEMENT_SET_NO":999,"REV_AT_EPOCH":29418,"BSTAR":0.0019689,"MEAN_MOTION_DOT":0.00091542,"MEAN_MOTION_DDOT":0},{"OBJECT_NAME":"STARLINK-1553","OBJECT_ID":"2020-062Z","EPOCH":"2025-12-25T20:26:33.698688","MEAN_MOTION":15.3287311,"ECCENTRICITY":0.0001441,"INCLINATION":53.0395,"RA_OF_ASC_NODE":293.2578,"ARG_OF_PERICENTER":331.4647,"MEAN_ANOMALY":28.6274,"EPHEMERIS_TYPE":0,"CLASSIFICATION_TYPE":"U","NORAD_CAT_ID":46348,"ELEMENT_SET_NO":999,"REV_AT_EPOCH":29395,"BSTAR":0.00098492,"MEAN_MOTION_DOT":0.00031475,"MEAN_MOTION_DDOT":0},{"OBJECT_NAME":"STARLINK-1575","OBJECT_ID":"2020-062AA","EPOCH":"2025-12-25T22:00:01.998720","MEAN_MOTION":15.5487795,"ECCENTRICITY":0.0003411,"INCLINATION":53.0386,"RA_OF_ASC_NODE":265.936,"ARG_OF_PERICENTER":101.1071,"MEAN_ANOMALY":118.6464,"EPHEMERIS_TYPE":0,"CLASSIFICATION_TYPE":"U","NORAD_CAT_ID":46349,"ELEMENT_SET_NO":999,"REV_AT_EPOCH":564,"BSTAR":0.0016365,"MEAN_MOTION_DOT":0.00112318,"MEAN_MOTION_DDOT":0},{"OBJECT_NAME":"STARLINK-1646","OBJECT_ID":"2020-062AC","EPOCH":"2025-12-25T22:00:01.998720","MEAN_MOTION":15.3286417,"ECCENTRICITY":0.0001672,"INCLINATION":53.0615,"RA_OF_ASC_NODE":326.3178,"ARG_OF_PERICENTER":97.2865,"MEAN_ANOMALY":291.5165,"EPHEMERIS_TYPE":0,"CLASSIFICATION_TYPE":"U","NORAD_CAT_ID":46351,"ELEMENT_SET_NO":999,"REV_AT_EPOCH":548,"BSTAR":0.032275,"MEAN_MOTION_DOT":0.01141339,"MEAN_MOTION_DDOT":0},{"OBJECT_NAME":"STARLINK-1653","OBJECT_ID":"2020-062AD","EPOCH":"2025-12-25T22:00:01.998720","MEAN_MOTION":15.37826989,"ECCENTRICITY":0.0012218,"INCLINATION":53.0518,"RA_OF_ASC_NODE":315.51,"ARG_OF_PERICENTER":62.0608,"MEAN_ANOMALY":202.6505,"EPHEMERIS_TYPE":0,"CLASSIFICATION_TYPE":"U","NORAD_CAT_ID":46352,"ELEMENT_SET_NO":999,"REV_AT_EPOCH":591,"BSTAR":0.0030196,"MEAN_MOTION_DOT":0.00115521,"MEAN_MOTION_DDOT":0},{"OBJECT_NAME":"STARLINK-1656","OBJECT_ID":"2020-062AE","EPOCH":"2025-12-24T16:54:16.940736","MEAN_MOTION":15.06398456,"ECCENTRICITY":0.00014788,"INCLINATION":53.0579,"RA_OF_ASC_NODE":353.2396,"ARG_OF_PERICENTER":84.8652,"MEAN_ANOMALY":275.2505,"EPHEMERIS_TYPE":0,"CLASSIFICATION_TYPE":"U","NORAD_CAT_ID":46353,"ELEMENT_SET_NO":999,"REV_AT_EPOCH":29300,"BSTAR":-3.5820362e-5,"MEAN_MOTION_DOT":-8.15e-6,"MEAN_MOTION_DDOT":0},{"OBJECT_NAME":"STARLINK-1657","OBJECT_ID":"2020-062AF","EPOCH":"2025-12-25T22:00:01.998720","MEAN_MOTION":15.47853692,"ECCENTRICITY":0.0010874,"INCLINATION":53.0506,"RA_OF_ASC_NODE":330.9833,"ARG_OF_PERICENTER":45.9954,"MEAN_ANOMALY":57.0574,"EPHEMERIS_TYPE":0,"CLASSIFICATION_TYPE":"U","NORAD_CAT_ID":46354,"ELEMENT_SET_NO":999,"REV_AT_EPOCH":594,"BSTAR":0.003329,"MEAN_MOTION_DOT":0.00179976,"MEAN_MOTION_DDOT":0},{"OBJECT_NAME":"STARLINK-1661","OBJECT_ID":"2020-062AG","EPOCH":"2025-12-25T04:45:32.478048","MEAN_MOTION":15.06395086,"ECCENTRICITY":0.0001745,"INCLINATION":53.0579,"RA_OF_ASC_NODE":351.0215,"ARG_OF_PERICENTER":102.0737,"MEAN_ANOMALY":258.0448,"EPHEMERIS_TYPE":0,"CLASSIFICATION_TYPE":"U","NORAD_CAT_ID":46355,"ELEMENT_SET_NO":999,"REV_AT_EPOCH":29308,"BSTAR":-6.8315e-5,"MEAN_MOTION_DOT":-1.299e-5,"MEAN_MOTION_DDOT":0},{"OBJECT_NAME":"STARLINK-1665","OBJECT_ID":"2020-062AH","EPOCH":"2025-12-25T22:00:01.998720","MEAN_MOTION":15.45839454,"ECCENTRICITY":0.0011968,"INCLINATION":53.0512,"RA_OF_ASC_NODE":332.9881,"ARG_OF_PERICENTER":47.1538,"MEAN_ANOMALY":200.9918,"EPHEMERIS_TYPE":0,"CLASSIFICATION_TYPE":"U","NORAD_CAT_ID":46356,"ELEMENT_SET_NO":999,"REV_AT_EPOCH":587,"BSTAR":0.0033884,"MEAN_MOTION_DOT":0.00170729,"MEAN_MOTION_DDOT":0},{"OBJECT_NAME":"STARLINK-1666","OBJECT_ID":"2020-062AJ","EPOCH":"2025-12-25T22:00:01.998720","MEAN_MOTION":15.34610605,"ECCENTRICITY":0.0001301,"INCLINATION":53.0544,"RA_OF_ASC_NODE":326.269,"ARG_OF_PERICENTER":104.7686,"MEAN_ANOMALY":208.3651,"EPHEMERIS_TYPE":0,"CLASSIFICATION_TYPE":"U","NORAD_CAT_ID":46357,"ELEMENT_SET_NO":999,"REV_AT_EPOCH":583,"BSTAR":0.0027172,"MEAN_MOTION_DOT":0.00093205,"MEAN_MOTION_DDOT":0},{"OBJECT_NAME":"STARLINK-1707","OBJECT_ID":"2020-062AL","EPOCH":"2025-12-25T19:00:48.436992","MEAN_MOTION":15.43384848,"ECCENTRICITY":0.0006551,"INCLINATION":53.0324,"RA_OF_ASC_NODE":271.1842,"ARG_OF_PERICENTER":71.1415,"MEAN_ANOMALY":289.03,"EPHEMERIS_TYPE":0,"CLASSIFICATION_TYPE":"U","NORAD_CAT_ID":46359,"ELEMENT_SET_NO":999,"REV_AT_EPOCH":29425,"BSTAR":0.0019009,"MEAN_MOTION_DOT":0.00086816,"MEAN_MOTION_DDOT":0},{"OBJECT_NAME":"STARLINK-1726","OBJECT_ID":"2020-062AP","EPOCH":"2025-12-25T00:22:11.950176","MEAN_MOTION":15.54831347,"ECCENTRICITY":0.00046808,"INCLINATION":53.0496,"RA_OF_ASC_NODE":270.3725,"ARG_OF_PERICENTER":67.8472,"MEAN_ANOMALY":292.3034,"EPHEMERIS_TYPE":0,"CLASSIFICATION_TYPE":"U","NORAD_CAT_ID":46362,"ELEMENT_SET_NO":999,"REV_AT_EPOCH":29420,"BSTAR":0.0019808636,"MEAN_MOTION_DOT":0.00136257,"MEAN_MOTION_DDOT":0},{"OBJECT_NAME":"STARLINK-1651","OBJECT_ID":"2020-062AT","EPOCH":"2025-12-25T22:00:01.998720","MEAN_MOTION":15.60622538,"ECCENTRICITY":0.0009412,"INCLINATION":53.0433,"RA_OF_ASC_NODE":276.6356,"ARG_OF_PERICENTER":54.5142,"MEAN_ANOMALY":66.406,"EPHEMERIS_TYPE":0,"CLASSIFICATION_TYPE":"U","NORAD_CAT_ID":46366,"ELEMENT_SET_NO":999,"REV_AT_EPOCH":590,"BSTAR":0.0014922,"MEAN_MOTION_DOT":0.00127512,"MEAN_MOTION_DDOT":0},{"OBJECT_NAME":"STARLINK-1724","OBJECT_ID":"2020-062BC","EPOCH":"2025-12-25T04:48:52.163136","MEAN_MOTION":15.38795924,"ECCENTRICITY":0.0006651,"INCLINATION":53.0355,"RA_OF_ASC_NODE":282.4962,"ARG_OF_PERICENTER":85.5276,"MEAN_ANOMALY":274.6487,"EPHEMERIS_TYPE":0,"CLASSIFICATION_TYPE":"U","NORAD_CAT_ID":46375,"ELEMENT_SET_NO":999,"REV_AT_EPOCH":29404,"BSTAR":0.0017942,"MEAN_MOTION_DOT":0.00070151,"MEAN_MOTION_DDOT":0},{"OBJECT_NAME":"STARLINK-1742","OBJECT_ID":"2020-062BD","EPOCH":"2025-12-25T20:00:01.999008","MEAN_MOTION":15.52558184,"ECCENTRICITY":0.0003885,"INCLINATION":53.0352,"RA_OF_ASC_NODE":259.1407,"ARG_OF_PERICENTER":135.3814,"MEAN_ANOMALY":313.3017,"EPHEMERIS_TYPE":0,"CLASSIFICATION_TYPE":"U","NORAD_CAT_ID":46376,"ELEMENT_SET_NO":999,"REV_AT_EPOCH":594,"BSTAR":0.001624,"MEAN_MOTION_DOT":0.00102294,"MEAN_MOTION_DDOT":0},{"OBJECT_NAME":"STARLINK-1769","OBJECT_ID":"2020-062BK","EPOCH":"2025-12-25T20:00:01.999008","MEAN_MOTION":15.68453492,"ECCENTRICITY":0.0006056,"INCLINATION":53.0438,"RA_OF_ASC_NODE":266.6259,"ARG_OF_PERICENTER":66.678,"MEAN_ANOMALY":73.7349,"EPHEMERIS_TYPE":0,"CLASSIFICATION_TYPE":"U","NORAD_CAT_ID":46382,"ELEMENT_SET_NO":999,"REV_AT_EPOCH":581,"BSTAR":0.0017256,"MEAN_MOTION_DOT":0.0020302,"MEAN_MOTION_DDOT":0},{"OBJECT_NAME":"STARLINK-1770","OBJECT_ID":"2020-062BL","EPOCH":"2025-12-25T20:00:01.999008","MEAN_MOTION":15.4868565,"ECCENTRICITY":0.0007725,"INCLINATION":53.0484,"RA_OF_ASC_NODE":313.6774,"ARG_OF_PERICENTER":44.8391,"MEAN_ANOMALY":316.4689,"EPHEMERIS_TYPE":0,"CLASSIFICATION_TYPE":"U","NORAD_CAT_ID":46383,"ELEMENT_SET_NO":999,"REV_AT_EPOCH":594,"BSTAR":0.0031335,"MEAN_MOTION_DOT":0.0017407,"MEAN_MOTION_DDOT":0},{"OBJECT_NAME":"STARLINK-1771","OBJECT_ID":"2020-062BM","EPOCH":"2025-12-25T20:07:53.020704","MEAN_MOTION":15.34596933,"ECCENTRICITY":0.0008867,"INCLINATION":53.0477,"RA_OF_ASC_NODE":335.4797,"ARG_OF_PERICENTER":28.8227,"MEAN_ANOMALY":331.3262,"EPHEMERIS_TYPE":0,"CLASSIFICATION_TYPE":"U","NORAD_CAT_ID":46384,"ELEMENT_SET_NO":999,"REV_AT_EPOCH":29335,"BSTAR":0.0024676,"MEAN_MOTION_DOT":0.00084562,"MEAN_MOTION_DDOT":0},{"OBJECT_NAME":"STARLINK-1648","OBJECT_ID":"2020-070B","EPOCH":"2025-12-25T20:00:01.999008","MEAN_MOTION":15.5493319,"ECCENTRICITY":0.0002807,"INCLINATION":53.0536,"RA_OF_ASC_NODE":131.4271,"ARG_OF_PERICENTER":353.3647,"MEAN_ANOMALY":178.9622,"EPHEMERIS_TYPE":0,"CLASSIFICATION_TYPE":"U","NORAD_CAT_ID":46533,"ELEMENT_SET_NO":999,"REV_AT_EPOCH":588,"BSTAR":0.0030085,"MEAN_MOTION_DOT":0.00209869,"MEAN_MOTION_DDOT":0}]
